ONEWEB-0709             
1 55172U 23004AJ  26093.20463308  .00000506  00000+0  13915-2 0  9996
2 55172  87.8903  35.9859 0002560  65.5597 294.5798 13.11419200156048
ONEWEB-0710             
1 55173U 23004AK  26093.25477380  .00000215  00000+0  52036-3 0  9992
2 55173  87.9179  20.7487 0001728  76.7827 283.3497 13.17651017157716
ONEWEB-0711             
1 55174U 23004AL  26093.25207720 -.00000639  00000+0 -18401-2 0  9991
2 55174  87.8919  35.9608 0001133  70.1560 289.9690 13.11416914156011
ONEWEB-0713             
1 55175U 23004AM  26093.19444375  .00000055  00000+0  11919-3 0  9992
2 55175  87.8916  35.9720 0001436  74.7211 285.4076 13.11419751155990
ONEWEB-0715             
1 55176U 23004AN  26093.11305641 -.00000145  00000+0 -44349-3 0  9992
2 55176  87.8914  35.9878 0002161  60.1790 299.9553 13.11419651156024
ONEWEB-0716             
1 55177U 23004AP  26093.24803168  .00000128  00000+0  29766-3 0  9999
2 55177  87.9187  20.7504 0001995  83.7082 276.4276 13.17651943157712
ONEWEB-0717             
1 55178U 23004AQ  26093.23115400  .00000048  00000+0  90839-4 0  9995
2 55178  87.9189  20.7353 0001216  63.9432 296.1824 13.17650960157763
ONEWEB-0719             
1 55179U 23004AR  26093.24128134  .00000076  00000+0  16350-3 0  9991
2 55179  87.9192  20.7146 0001816  84.2659 275.8680 13.17649895157715
ONEWEB-0530             
1 55796U 23029A   26093.24274744  .00000041  00000+0  68196-4 0  9990
2 55796  87.9129 289.4401 0001253  99.1048 261.0227 13.20772232151253
ONEWEB-0534             
1 55797U 23029B   26093.00285090 -.00000013  00000+0 -63896-4 0  9994
2 55797  87.9132 289.4866 0001789  92.6732 267.4606 13.20772544151229
ONEWEB-0556             
1 55798U 23029C   26093.23643022  .00000011  00000+0 -45378-5 0  9996
2 55798  87.9128 289.4417 0002065 116.6364 243.4981 13.20773101151256
ONEWEB-0562             
1 55799U 23029D   26092.99653567  .00000010  00000+0 -83197-5 0  9994
2 55799  87.9130 289.4700 0001255 120.0374 240.0884 13.20772938151224
ONEWEB-0563             
1 55800U 23029E   26093.29325140  .00000057  00000+0  10824-3 0  9999
2 55800  87.9130 289.4411 0001859  94.1621 265.9724 13.20770483151257
ONEWEB-0564             
1 55801U 23029F   26092.98391338  .00000048  00000+0  87130-4 0  9992
2 55801  87.9130 289.4752 0001374  98.6964 261.4325 13.20772090151228
ONEWEB-0638             
1 55802U 23029G   26093.11257496  .00000306  00000+0  79003-3 0  9991
2 55802  87.8934 304.7442 0001642 106.3740 253.7571 13.14501829149535
ONEWEB-0639             
1 55803U 23029H   26093.12491999  .00000085  00000+0  18030-3 0  9998
2 55803  87.9193 319.9431 0002773  83.6206 276.5242 13.19727327149008
ONEWEB-0640             
1 55804U 23029J   26093.12209662  .00000198  00000+0  49980-3 0  9996
2 55804  87.8938 304.7333 0002033 106.3086 253.8268 13.14505403149556
ONEWEB-0641             
1 55805U 23029K   26093.12017822  .00000150  00000+0  34341-3 0  9995
2 55805  87.9188 319.9311 0001906  82.2378 277.8971 13.19727051149011
ONEWEB-0642             
1 55806U 23029L   26093.19126553  .00000137  00000+0  31003-3 0  9992
2 55806  87.9188 319.9313 0002553  77.6473 282.4945 13.19726559149012
ONEWEB-0643             
1 55807U 23029M   26093.09195192  .00000035  00000+0  60138-4 0  9996
2 55807  87.8937 304.7262 0002268  74.7658 285.3723 13.14505027149527
ONEWEB-0644             
1 55808U 23029N   26093.18652014  .00000118  00000+0  26219-3 0  9991
2 55808  87.9179 319.9368 0002083  79.9074 280.2294 13.19727487149018
ONEWEB-0645             
1 55809U 23029P   26093.13280580  .00000106  00000+0  23127-3 0  9994
2 55809  87.9189 319.9418 0002186  90.7369 269.4015 13.19727322149005
ONEWEB-0646             
1 55810U 23029Q   26093.15018863  .00000021  00000+0  19920-4 0  9994
2 55810  87.9188 319.9387 0001992  79.3600 280.7757 13.19726102148997
ONEWEB-0648             
1 55811U 23029R   26093.28859598 -.00000095  00000+0 -29020-3 0  9991
2 55811  87.8943 304.6536 0002647  91.0877 269.0556 13.14504292149557
ONEWEB-0649             
1 55812U 23029S   26093.17545319  .00000116  00000+0  25789-3 0  9993
2 55812  87.9187 319.9306 0002018  87.2023 272.9341 13.19727497149032
ONEWEB-0650             
1 55813U 23029T   26093.17072176  .00000074  00000+0  15142-3 0  9995
2 55813  87.9187 319.9345 0002208  81.7436 278.3947 13.19726782149009
ONEWEB-0652             
1 55814U 23029U   26093.11732820  .00000266  00000+0  68354-3 0  9995
2 55814  87.8933 304.7015 0001506  85.4261 274.7040 13.14504765149500
ONEWEB-0653             
1 55815U 23029V   26093.10146627  .00000194  00000+0  48910-3 0  9995
2 55815  87.8942 304.6971 0001578  92.1525 267.9786 13.14504919149533
ONEWEB-0654             
1 55816U 23029W   26093.09670485 -.00000099  00000+0 -30271-3 0  9995
2 55816  87.8936 304.6956 0001322  88.8963 271.2318 13.14503132149552
ONEWEB-0656             
1 55817U 23029X   26092.97758757  .00001155  00000+0  28081-2 0  9998
2 55817  87.9138 289.4448 0001517  94.0409 266.0898 13.20781486151223
ONEWEB-0657             
1 55818U 23029Y   26093.16598013  .00000035  00000+0  55458-4 0  9994
2 55818  87.9189 319.9336 0001370  61.0990 299.0280 13.19727872149013
ONEWEB-0658             
1 55819U 23029Z   26093.16124772 -.00000005  00000+0 -43751-4 0  9994
2 55819  87.9199 319.9037 0002133  81.8763 278.2612 13.19727041149026
ONEWEB-0660             
1 55820U 23029AA  26092.99840122 -.00000194  00000+0 -55719-3 0  9995
2 55820  87.8949 304.7044 0001950  94.3167 265.8186 13.14502004149521
ONEWEB-0661             
1 55821U 23029AB  26093.10940550  .00000282  00000+0  72602-3 0  9992
2 55821  87.8932 304.7355 0001809  96.2737 263.8599 13.14501775149526
ONEWEB-0662             
1 55822U 23029AC  26093.29652003 -.00000095  00000+0 -29175-3 0  9997
2 55822  87.8932 304.7058 0001944  93.4541 266.6811 13.14501622149595
ONEWEB-0663             
1 55823U 23029AD  26093.09276889  .00000075  00000+0  15326-3 0  9999
2 55823  87.9144 289.4949 0002140  93.0214 267.1164 13.20864485151239
ONEWEB-0664             
1 55824U 23029AE  26093.26800100  .00000100  00000+0  21355-3 0  9996
2 55824  87.9132 289.4493 0001780 106.4255 253.7074 13.20771126151256
ONEWEB-0665             
1 55825U 23029AF  26093.10622867  .00000254  00000+0  65094-3 0  9990
2 55825  87.8936 304.7167 0002049  91.8634 268.2730 13.14504612149540
ONEWEB-0666             
1 55826U 23029AG  26093.26168225  .00000139  00000+0  30885-3 0  9993
2 55826  87.9132 289.4400 0001266  68.9554 291.1715 13.20772451151260
ONEWEB-0667             
1 55827U 23029AH  26093.25537673  .00000140  00000+0  31175-3 0  9995
2 55827  87.9150 289.3864 0001824  94.8353 265.2988 13.20772414151251
ONEWEB-0669             
1 55828U 23029AJ  26093.09912502  .00000113  00000+0  24563-3 0  9999
2 55828  87.9130 289.4385 0001229 105.7262 254.4007 13.20772597151231
ONEWEB-0670             
1 55829U 23029AK  26093.00790181 -.00000314  00000+0 -88061-3 0  9996
2 55829  87.8939 304.7546 0001801 100.2949 259.8384 13.14502399149559
ONEWEB-0671             
1 55830U 23029AL  26093.15650320  .00000086  00000+0  18286-3 0  9990
2 55830  87.9186 319.9370 0001832  88.3165 271.8178 13.19727527149001
ONEWEB-0672             
1 55831U 23029AM  26093.24589174  .00006021  00000+0  14773-1 0  9999
2 55831  87.9137 289.3981 0001607  88.7987 271.3330 13.20743769151255
ONEWEB-0673             
1 55832U 23029AN  26093.13360092  .00000159  00000+0  36512-3 0  9997
2 55832  87.9190 319.9270 0001755  87.5732 272.5602 13.19726511149004
ONEWEB-0674             
1 55833U 23029AP  26093.28066441  .00000106  00000+0  25188-3 0  9994
2 55833  87.8935 304.6776 0001708 101.3460 258.7862 13.14503910149571
ONEWEB-0675             
1 55834U 23029AQ  26093.14861189  .00000032  00000+0  48587-4 0  9999
2 55834  87.9189 319.9399 0001671  72.9125 287.2190 13.19727072149027
ONEWEB-0720             
1 55835U 23029AR  26093.14071597  .00000152  00000+0  34624-3 0  9995
2 55835  87.9187 319.9419 0002084  85.6568 274.4802 13.19727379148948
ONEWEB-0537             
1 56046U 23043A   26093.10960013  .00000037  00000+0  62513-4 0  9993
2 56046  87.9043 243.6920 0001532  96.6625 263.4681 13.16595005149082
ONEWEB-0538             
1 56047U 23043B   26093.10326054  .00000018  00000+0  13992-4 0  9991
2 56047  87.9038 243.6953 0001798  91.4149 268.7188 13.16595295149093
ONEWEB-0546             
1 56048U 23043C   26093.31858646  .00000047  00000+0  88296-4 0  9993
2 56048  87.9042 243.6512 0001051  91.8328 268.2923 13.16596457149111
ONEWEB-0547             
1 56049U 23043D   26093.00650205  .00004511  00000+0  10869-1 0  9999
2 56049  87.9184 258.9508 0001737  94.7404 265.3928 13.21923391148299
ONEWEB-0548             
1 56050U 23043E   26093.11514781 -.00000008  00000+0 -53513-4 0  9996
2 56050  87.9041 243.6904 0001792 115.7522 244.3794 13.16596197149080
ONEWEB-0549             
1 56051U 23043F   26092.99942159 -.00008230  00000+0 -20002-1 0  9995
2 56051  87.9177 258.9639 0002028  89.3020 270.8346 13.21741470148298
ONEWEB-0550             
1 56052U 23043G   26093.21329372 -.00004991  00000+0 -12134-1 0  9995
2 56052  87.9173 258.9169 0001918  96.6561 263.4792 13.21773364148325
ONEWEB-0551             
1 56053U 23043H   26093.01057915 -.00000136  00000+0 -39494-3 0  9992
2 56053  87.8925 274.2316 0001943  87.1727 272.9626 13.15549751146516
ONEWEB-0552             
1 56054U 23043J   26093.20832791 -.00004495  00000+0 -10929-1 0  9999
2 56054  87.9178 258.9246 0002291  94.8068 265.3328 13.21782667148327
ONEWEB-0553             
1 56055U 23043K   26093.32492300  .00000070  00000+0  14989-3 0  9996
2 56055  87.9041 243.6519 0001320 103.4492 256.6786 13.16595260149126
ONEWEB-0554             
1 56056U 23043L   26092.93226921  .00000054  00000+0  10768-3 0  9990
2 56056  87.9038 243.7399 0001684 111.0716 249.0596 13.16595233149054
